[{"OBJECT_NAME":"FLOCK 4G-24","OBJECT_ID":"2025-009AE","EPOCH":"2026-03-09T17:24:07.838208","MEAN_MOTION":15.27784978,"ECCENTRICITY":0.0001802,"INCLINATION":97.4061,"RA_OF_ASC_NODE":151.514,"ARG_OF_PERICENTER":280.2808,"MEAN_ANOMALY":79.8228,"EPHEMERIS_TYPE":0,"CLASSIFICATION_TYPE":"U","NORAD_CAT_ID":62637,"ELEMENT_SET_NO":999,"REV_AT_EPOCH":6373,"BSTAR":0.00038996067,"MEAN_MOTION_DOT":0.00010513,"MEAN_MOTION_DDOT":0},{"OBJECT_NAME":"STARLINK-33846","OBJECT_ID":"2025-091F","EPOCH":"2026-03-09T23:31:14.154816","MEAN_MOTION":15.27586198,"ECCENTRICITY":9.578e-5,"INCLINATION":42.9997,"RA_OF_ASC_NODE":51.1415,"ARG_OF_PERICENTER":191.9413,"MEAN_ANOMALY":168.1416,"EPHEMERIS_TYPE":0,"CLASSIFICATION_TYPE":"U","NORAD_CAT_ID":63780,"ELEMENT_SET_NO":999,"REV_AT_EPOCH":4899,"BSTAR":0.00089263105,"MEAN_MOTION_DOT":0.00024387,"MEAN_MOTION_DDOT":0}]
